ONEWEB-0010             
1 44058U 19010B   23059.11821117  .00000236  00000+0  58271-3 0  9999
2 44058  87.9013 108.7603 0001329 117.6958 242.4308 13.16595048193073
ONEWEB-0010             
1 44058U 19010B   23059.49819546  .00000158  00000+0  37985-3 0  9995
2 44058  87.9012 108.6845 0001345 118.2937 241.8330 13.16595515193090
ONEWEB-0010             
1 44058U 19010B   23059.87818016  .00000034  00000+0  55891-4 0  9998
2 44058  87.9011 108.6087 0001357 118.4259 241.7008 13.16595431193143
ONEWEB-0010             
1 44058U 19010B   23060.86613921  .00000003  00000+0 -25913-4 0  9996
2 44058  87.9009 108.4114 0001401 119.1554 240.9717 13.16595813193271
ONEWEB-0010             
1 44058U 19010B   23061.62610810 -.00000013  00000+0 -68070-4 0  9998
2 44058  87.9007 108.2596 0001435 119.4613 240.6661 13.16595609193376
ONEWEB-0010             
1 44058U 19010B   23062.53807024  .00000014  00000+0  21905-5 0  9990
2 44058  87.9006 108.0776 0001476 119.6309 240.4969 13.16596059193494
